IRIDIUM 106             
1 41917U 17003A   25281.30090832  .00000415  00000+0  14112-3 0  9997
2 41917  86.4038 193.7587 0002302  70.5469 289.5976 14.34218207457106
IRIDIUM 103             
1 41918U 17003B   25281.14868624  .00000334  00000+0  11231-3 0  9991
2 41918  86.4040 193.7228 0002660  84.7468 275.4031 14.34218233457100
IRIDIUM 109             
1 41919U 17003C   25281.22477527  .00000431  00000+0  14687-3 0  9995
2 41919  86.4043 193.7463 0002086  88.3721 271.7714 14.34212105457085
IRIDIUM 102             
1 41920U 17003D   25281.26284391  .00000276  00000+0  91460-4 0  9998
2 41920  86.4036 193.6596 0002119  84.9867 275.1570 14.34216138457173
IRIDIUM 105             
1 41921U 17003E   25280.39644326  .00000416  00000+0  14147-3 0  9992
2 41921  86.4026 162.5360 0002275  84.7792 275.3663 14.34228214458900
IRIDIUM 104             
1 41922U 17003F   25281.27553322  .00000437  00000+0  14913-3 0  9990
2 41922  86.4038 193.6931 0002385  91.0065 269.1404 14.34216886457162
IRIDIUM 114             
1 41923U 17003G   25281.28188031  .00000381  00000+0  12900-3 0  9995
2 41923  86.4038 193.6745 0002395  83.6160 276.5308 14.34218526457146
IRIDIUM 108             
1 41924U 17003H   25281.17063074  .00000355  00000+0  11960-3 0  9999
2 41924  86.4018 162.1072 0001933  81.2312 278.9102 14.34218090458986
